COSMOS 2426 (717)       
1 29671U 06062B   20050.58073406  .00000062  00000-0  10000-3 0  9991
2 29671  65.0131 271.9296 0019651 170.3593  23.5124  2.12962354102362
COSMOS 2433 (720)       
1 32275U 07052A   20049.59581909 -.00000038  00000-0  10000-3 0  9990
2 32275  65.9435  32.9137 0005426 267.8943 329.6169  2.13104396 95856
COSMOS 2432 (719)       
1 32276U 07052B   20049.86062215 -.00000039  00000-0  10000-3 0  9996
2 32276  65.9568  32.9915 0012524 320.5605  70.5447  2.13103720 95869
COSMOS 2434 (721)       
1 32393U 07065A   20049.48325755  .00000060  00000-0  00000+0 0  9997
2 32393  64.6195 270.5366 0004604  77.9450 320.6447  2.13103054 94567
COSMOS 2436 (723)       
1 32395U 07065C   20050.42438528  .00000063  00000-0  10000-3 0  9996
2 32395  64.6268 270.5521 0015382   6.2242 170.6456  2.13102949 94512
COSMOS 2456 (730)       
1 36111U 09070A   20050.38521535 -.00000046  00000-0  00000-0 0  9998
2 36111  64.2186 150.1685 0003437 323.7779 220.1536  2.13102751 79245
COSMOS 2457 (733)       
1 36112U 09070B   20050.44216287 -.00000046  00000-0  00000-0 0  9991
2 36112  64.1988 150.0626 0005930 159.3376 192.1339  2.13101435 79242
COSMOS 2459 (731)       
1 36400U 10007A   20050.41374249 -.00000043  00000-0  10000-3 0  9994
2 36400  65.8474  31.8716 0026811 344.7183  15.2726  2.13105151 77605
COSMOS 2461 (735)       
1 36401U 10007B   20049.83341884 -.00000041  00000-0  10000-3 0  9996
2 36401  65.8414  31.8633 0005142  43.1741 141.0634  2.13102038 77586
COSMOS 2460 (732)       
1 36402U 10007C   20050.24633671 -.00000043  00000-0  10000-3 0  9994
2 36402  65.8301  31.8080 0002700 282.7698 257.6068  2.13101418 77594
COSMOS 2464 (736)       
1 37139U 10041C   20050.31577050  .00000063  00000-0  00000-0 0  9993
2 37139  64.2202 270.0071 0027656  13.2921 168.4635  2.13100705 73666
COSMOS 2474 (742)       
1 37829U 11055A   20050.29990531 -.00000045  00000-0  00000-0 0  9996
2 37829  64.5375 151.1462 0008838 243.1073  90.6817  2.13101862 65239
COSMOS 2476 (744)       
1 37867U 11064A   20050.23526412 -.00000045  00000-0  00000-0 0  9995
2 37867  64.5185 151.1943 0018848 236.4012  93.9934  2.13101891 64589
COSMOS 2477 (745)       
1 37868U 11064B   20050.43567170 -.00000045  00000-0  00000-0 0  9994
2 37868  64.5255 151.2433 0016496 237.2858  65.4222  2.13101753 64544
COSMOS 2475 (743)       
1 37869U 11064C   20050.52926073 -.00000045  00000-0  00000+0 0  9995
2 37869  64.5320 151.2404 0020317 260.8743  70.9275  2.13101841 64556
COSMOS 2485 (747)       
1 39155U 13019A   20050.21160469 -.00000045  00000-0  00000+0 0  9992
2 39155  64.6860 151.4384 0019364 231.8899 124.9793  2.13101808 53056
COSMOS 2492 (754)       
1 39620U 14012A   20049.47394644 -.00000040  00000-0  10000-3 0  9993
2 39620  65.7205  31.6349 0015800 318.6683 227.4006  2.13103357 45995
COSMOS 2500 (755)       
1 40001U 14032A   20050.44596336 -.00000045  00000-0  00000+0 0  9991
2 40001  65.6623  31.5254 0007348 227.7925 204.7782  2.13102597 44234
COSMOS 2501 (702K)      
1 40315U 14075A   20050.32904218  .00000061  00000-0  00000-0 0  9993
2 40315  63.9369 270.9981 0014929 206.6218 292.1796  2.13098536 40633
COSMOS 2514 (751)       
1 41330U 16008A   20050.24742551 -.00000044  00000-0  00000+0 0  9991
2 41330  65.4644  31.4349 0011116 228.2948 234.1652  2.13103016 31397
COSMOS 2516 (753)       
1 41554U 16032A   20050.44429785  .00000061  00000-0  00000-0 0  9998
2 41554  64.1580 271.0307 0010562 218.1044 286.0796  2.13101796 29008
COSMOS 2522 (752)       
1 42939U 17055A   20050.14931117  .00000061  00000-0  00000+0 0  9995
2 42939  64.3909 271.1885 0005688 255.7828 248.6503  2.13102043 18751
COSMOS 2527 (756)       
1 43508U 18053A   20050.40341942 -.00000045  00000-0  00000+0 0  9990
2 43508  64.8500 151.2555 0006828 225.5820 145.4282  2.13102597 13052
COSMOS 2529 (757)       
1 43687U 18086A   20050.25257939  .00000061  00000-0  00000+0 0  9996
2 43687  64.6090 271.2722 0008682 281.8953 257.3950  2.13102122 10060
COSMOS 2534 (758)       
1 44299U 19030A   20050.57859749  .00000062  00000-0  00000+0 0  9999
2 44299  64.6745 271.0644 0012394 298.8966 265.5964  2.13101931  5714
